{
  "version": 1,
  "fetchedAt": "2026-06-21T12:32:46.387Z",
  "source": "celestrak-gp",
  "counts": {
    "station": 24,
    "satellite": 520,
    "debris": 250
  },
  "objects": [
    {
      "id": "20580",
      "name": "HST",
      "noradId": 20580,
      "line1": "1 20580U 90037B   26171.07700591  .00005529  00000+0  17304-3 0  9998",
      "line2": "2 20580  28.4722  60.8244 0001639 173.2571 186.8048 15.30775367789015",
      "category": "satellite"
    },
    {
      "id": "25994",
      "name": "TERRA",
      "noradId": 25994,
      "line1": "1 25994U 99068A   26171.44083515  .00000275  00000+0  65041-4 0  9991",
      "line2": "2 25994  97.9454 220.8581 0001842 178.7606 238.1366 14.61105267410080",
      "category": "satellite"
    },
    {
      "id": "23802",
      "name": "POLAR",
      "noradId": 23802,
      "line1": "1 23802U 96013A   26171.11796646  .00000083  00000+0  00000+0 0  9990",
      "line2": "2 23802  79.8578 227.0179 6473338 208.9775  90.0485  1.29846117144892",
      "category": "satellite"
    },
    {
      "id": "25560",
      "name": "SWAS",
      "noradId": 25560,
      "line1": "1 25560U 98071A   26171.39495998  .00002144  00000+0  13942-3 0  9998",
      "line2": "2 25560  69.8943 219.2467 0008695 256.5318 103.4877 15.09639514497753",
      "category": "satellite"
    },
    {
      "id": "25867",
      "name": "CXO",
      "noradId": 25867,
      "line1": "1 25867U 99040B   26172.02247085  .00000453  00000+0  00000+0 0  9996",
      "line2": "2 25867  56.2474 116.4966 7828329 310.2765   0.2930  0.37807394 17333",
      "category": "satellite"
    },
    {
      "id": "25989",
      "name": "XMM-NEWTON",
      "noradId": 25989,
      "line1": "1 25989U 99066A   26173.33565867 -.00000042  00000+0  00000+0 0  9990",
      "line2": "2 25989  64.4564 282.9193 4671880  64.8135   0.0790  0.50128039 23031",
      "category": "satellite"
    },
    {
      "id": "26410",
      "name": "CLUSTER II-FM7 (SAMBA)",
      "noradId": 26410,
      "line1": "1 26410U 00041A   26172.60140140  .00004700  00000+0  00000+0 0  9991",
      "line2": "2 26410 149.9158  51.6298 9060197 268.8497 359.5612  0.44827461 20334",
      "category": "satellite"
    },
    {
      "id": "26464",
      "name": "CLUSTER II-FM8 (TANGO)",
      "noradId": 26464,
      "line1": "1 26464U 00045B   26170.68964110  .00004777  00000+0  00000+0 0  9995",
      "line2": "2 26464 150.1455  52.4796 9063456 269.5212   2.6313  0.44407361 20329",
      "category": "satellite"
    },
    {
      "id": "26702",
      "name": "ODIN",
      "noradId": 26702,
      "line1": "1 26702U 01007A   26171.07824256  .00171166  00000+0  10523-2 0  9990",
      "line2": "2 26702  97.3813 212.2073 0006749 140.3393 219.8368 15.76711423389853",
      "category": "satellite"
    },
    {
      "id": "26998",
      "name": "TIMED",
      "noradId": 26998,
      "line1": "1 26998U 01055B   26171.42031838  .00000698  00000+0  66991-4 0  9998",
      "line2": "2 26998  74.0670 228.5087 0001295 331.0039  29.1074 14.95299607331303",
      "category": "satellite"
    },
    {
      "id": "27640",
      "name": "CORIOLIS",
      "noradId": 27640,
      "line1": "1 27640U 03001A   26171.43857340  .00000069  00000+0  53062-4 0  9998",
      "line2": "2 27640  98.7125 178.2738 0013553 199.0083 161.0590 14.19945602214680",
      "category": "satellite"
    },
    {
      "id": "27651",
      "name": "SORCE",
      "noradId": 27651,
      "line1": "1 27651U 03004A   26171.39382147  .00001922  00000+0  14831-3 0  9995",
      "line2": "2 27651  39.9898 243.3830 0016156  73.8065 286.4506 15.03725995272389",
      "category": "satellite"
    },
    {
      "id": "27843",
      "name": "MOST",
      "noradId": 27843,
      "line1": "1 27843U 03031D   26171.44953571  .00000034  00000+0  35488-4 0  9994",
      "line2": "2 27843  98.7044 179.1301 0008815 239.9123 120.1181 14.21322997191174",
      "category": "satellite"
    },
    {
      "id": "27858",
      "name": "SCISAT 1",
      "noradId": 27858,
      "line1": "1 27858U 03036A   26171.39952715  .00000392  00000+0  54783-4 0  9994",
      "line2": "2 27858  73.9283 164.9602 0008450 234.8607 125.1778 14.81450192231922",
      "category": "satellite"
    },
    {
      "id": "28485",
      "name": "SWIFT",
      "noradId": 28485,
      "line1": "1 28485U 04047A   26171.30342133  .00046405  00000+0  38117-3 0  9999",
      "line2": "2 28485  20.5515 160.8559 0001492 338.7604  21.2780 15.68583947187358",
      "category": "satellite"
    },
    {
      "id": "29479",
      "name": "HINODE (SOLAR-B)",
      "noradId": 29479,
      "line1": "1 29479U 06041A   26171.45569669  .00000470  00000+0  89260-4 0  9998",
      "line2": "2 29479  98.0544 187.5601 0015947 278.4847  81.4551 14.68626564 55357",
      "category": "satellite"
    },
    {
      "id": "29505",
      "name": "SHIJIAN-6 02A (SJ-6 02A)",
      "noradId": 29505,
      "line1": "1 29505U 06046A   26172.18130089  .00005117  00000+0  26255-3 0  9991",
      "line2": "2 29505  97.6356 213.2774 0004518 116.0697 244.1001 15.16981871 72876",
      "category": "satellite"
    },
    {
      "id": "29506",
      "name": "SHIJIAN-6 02B (SJ-6 02B)",
      "noradId": 29506,
      "line1": "1 29506U 06046B   26172.21185163  .00000834  00000+0  69294-4 0  9991",
      "line2": "2 29506  97.7155 201.2459 0015423  49.0598 311.1959 15.01384683 71344",
      "category": "satellite"
    },
    {
      "id": "33053",
      "name": "FGRST (GLAST)",
      "noradId": 33053,
      "line1": "1 33053U 08029A   26171.30606279  .00002090  00000+0  70461-4 0  9995",
      "line2": "2 33053  25.5800 182.8251 0008045   5.8288 354.2343 15.23956518996318",
      "category": "satellite"
    },
    {
      "id": "36395",
      "name": "SDO",
      "noradId": 36395,
      "line1": "1 36395U 10005A   26170.38591488 -.00000089  00000+0  00000+0 0  9990",
      "line2": "2 36395  34.6572  86.3078 0001831  48.8927 169.2237  1.00270271 60082",
      "category": "satellite"
    },
    {
      "id": "36508",
      "name": "CRYOSAT 2",
      "noradId": 36508,
      "line1": "1 36508U 10013A   26171.45859612  .00000175  00000+0  42616-4 0  9999",
      "line2": "2 36508  92.0358 278.0966 0002136  91.0529 269.0923 14.51900248858553",
      "category": "satellite"
    },
    {
      "id": "37389",
      "name": "X-SAT",
      "noradId": 37389,
      "line1": "1 37389U 11015C   26172.22722825 -.00000017  00000+0  10270-4 0  9998",
      "line2": "2 37389  98.3517 149.0586 0013627 336.5877  23.4682 14.25206803788252",
      "category": "satellite"
    },
    {
      "id": "38337",
      "name": "GCOM-W1 (SHIZUKU)",
      "noradId": 38337,
      "line1": "1 38337U 12025A   26171.40744943  .00000335  00000+0  84254-4 0  9993",
      "line2": "2 38337  98.2020 111.9143 0001751  73.2546  39.7525 14.57127079749507",
      "category": "satellite"
    },
    {
      "id": "38358",
      "name": "NUSTAR",
      "noradId": 38358,
      "line1": "1 38358U 12031A   26171.50003471  .00006357  00000+0  33895-3 0  9992",
      "line2": "2 38358   6.0277   9.2974 0007207 165.8701 326.2889 15.08829417  1303",
      "category": "satellite"
    },
    {
      "id": "39089",
      "name": "NEOSSAT",
      "noradId": 39089,
      "line1": "1 39089U 13009D   26171.41509429  .00000098  00000+0  48537-4 0  9990",
      "line2": "2 39089  98.4179 351.3709 0010010 233.0674 126.9596 14.35827352697206",
      "category": "satellite"
    },
    {
      "id": "39091",
      "name": "BRITE-AUSTRIA",
      "noradId": 39091,
      "line1": "1 39091U 13009F   26171.48176721  .00000114  00000+0  53431-4 0  9993",
      "line2": "2 39091  98.3997 350.8358 0009287 225.5758 134.4669 14.36543158697523",
      "category": "satellite"
    },
    {
      "id": "39197",
      "name": "IRIS",
      "noradId": 39197,
      "line1": "1 39197U 13033A   26170.52181357  .00000738  00000+0  90715-4 0  9990",
      "line2": "2 39197  97.9329   9.7915 0023380 313.8607  46.0676 14.85888859700724",
      "category": "satellite"
    },
    {
      "id": "39253",
      "name": "HISAKI (SPRINT-A)",
      "noradId": 39253,
      "line1": "1 39253U 13049A   26171.36948668  .00000096  00000+0  45696-4 0  9994",
      "line2": "2 39253  29.7174 203.8331 0136848  42.6521 318.4585 13.55544968631851",
      "category": "satellite"
    },
    {
      "id": "39265",
      "name": "CASSIOPE",
      "noradId": 39265,
      "line1": "1 39265U 13055A   26171.44198088  .00046037 -45328-6  50105-3 0  9991",
      "line2": "2 39265  80.9141  62.7685 0291626  51.5344 311.1666 15.25473611668168",
      "category": "satellite"
    },
    {
      "id": "39422",
      "name": "STSAT-3",
      "noradId": 39422,
      "line1": "1 39422U 13066G   26172.17450142  .00001867  00000+0  14396-3 0  9995",
      "line2": "2 39422  97.6226 141.9986 0010917  34.5775 325.6158 15.02775201684807",
      "category": "satellite"
    },
    {
      "id": "39451",
      "name": "SWARM B",
      "noradId": 39451,
      "line1": "1 39451U 13067A   26171.47264617  .00002821  00000+0  10029-3 0  9990",
      "line2": "2 39451  87.7443 341.3181 0003214  83.7057 276.4559 15.28568230683744",
      "category": "satellite"
    }
  ]
}